CUTE-1 (CO-55)          
1 27844U 03031E   26158.97516384  .00000321  00000+0  15786-3 0  9992
2 27844  98.6735 167.6499 0008926 205.5861 154.4877 14.24330292190364
CUBESAT XI-IV (CO-57)   
1 27848U 03031J   26158.95900340  .00000277  00000+0  14071-3 0  9999
2 27848  98.6766 167.3539 0008515 225.8669 134.1810 14.23616071190069
CUBESAT XI-V            
1 28895U 05043F   26158.95798337  .00001615  00000+0  26180-3 0  9999
2 28895  98.2976 314.3867 0013088 231.5140 128.4893 14.72607812100399
CUTE-1.7+APD II (CO-65) 
1 32785U 08021C   26159.16671106  .00005482  00000+0  34706-3 0  9998
2 32785  97.8271 140.3984 0010361  65.0809 295.1495 15.09365068983838
CANX-2                  
1 32790U 08021H   26158.91725338  .00003784  00000+0  26693-3 0  9992
2 32790  97.8630 138.5159 0012100  78.2854 281.9728 15.05549911983418
SEEDS II (CO-66)        
1 32791U 08021J   26158.92960024  .00019726  00000+0  63151-3 0  9990
2 32791  97.7519 156.3875 0002465  31.6806 328.4582 15.32435639985878
SWISSCUBE               
1 35932U 09051B   26159.00067639  .00001155  00000+0  23775-3 0  9999
2 35932  98.4042  66.7288 0005475 236.3791 123.6888 14.62465103887810
BEESAT-1                
1 35933U 09051C   26159.14224813  .00000873  00000+0  18503-3 0  9993
2 35933  98.3972  66.5271 0003900 253.0558 107.0215 14.61706135887867
ITUPSAT1                
1 35935U 09051E   26158.98819542  .00000873  00000+0  19037-3 0  9998
2 35935  98.4056  65.5723 0006075 268.4530  91.5974 14.60427678887398
TISAT 1                 
1 36799U 10035E   26159.10083921  .00022207  00000+0  73458-3 0  9992
2 36799  98.0701 104.8459 0000138 151.1351 208.9896 15.31365756866319
AEROCUBE 4.5A           
1 38767U 12048K   26159.05699664  .00322925  45039-4  10948-2 0  9996
2 38767  64.6264  60.1548 0019497 216.0532 143.9313 15.89325478371203
STRAND-1                
1 39090U 13009E   26159.00516148  .00000318  00000+0  12142-3 0  9996
2 39090  98.3920 339.4657 0007416 256.8127 103.2233 14.37158036695743
BRITE-AUSTRIA           
1 39091U 13009F   26158.73546881  .00000212  00000+0  86658-4 0  9990
2 39091  98.3993 338.4054 0008958 268.4216  91.5944 14.36538507695690
NEE-01 PEGASO           
1 39151U 13018B   26158.88677027  .00003701  00000+0  35587-3 0  9990
2 39151  98.1215 302.7307 0012438 188.3963 171.7049 14.93617855709313
POPACS 2                
1 39269U 13055E   26158.71430170  .00012643  00000+0  21568-3 0  9998
2 39269  80.9909 155.0345 0417126 224.2238 132.4940 14.90985736661809
POPACS 3                
1 39270U 13055F   26158.22388801  .00011557  00000+0  27206-3 0  9997
2 39270  81.0011 239.9862 0553011 100.3054 266.0944 14.55931826637103
ZACUBE-1 (TSHEPISOSAT)  
1 39417U 13066B   26159.14203030  .00004487  00000+0  34934-3 0  9994
2 39417  97.8095 121.4299 0039989 279.5341  80.1364 15.01133704679370
WNISAT-1                
1 39423U 13066H   26159.15243792  .00000740  00000+0  14377-3 0  9998
2 39423  97.7192 308.9505 0161681 260.2779  98.0129 14.58048486665413
TRITON-1                
1 39427U 13066M   26159.17880543  .00003210  00000+0  38804-3 0  9991
2 39427  97.8248  69.1906 0088297 263.7317  95.3833 14.81677985672753
GOMX-1                  
1 39430U 13066Q   26159.19751727  .00002267  00000+0  34369-3 0  9991
2 39430  97.6492   0.2273 0130096 106.0930 255.4645 14.69426826668593
CUBEBUG-2 (LO-74)       
1 39440U 13066AA  26158.75189183  .00005333  00000+0  49259-3 0  9995
2 39440  97.8907 107.6906 0059310  59.6684 301.0383 14.93689124675583
NEE-02 KRYSAOR          
1 39441U 13066AB  26159.05520186  .00002722  00000+0  30090-3 0  9994
2 39441  97.8887  98.3357 0067674  99.4326 261.4548 14.86581020674842
FUNCUBE-1 (AO-73)       
1 39444U 13066AE  26159.17346100  .00005422  00000+0  33894-3 0  9997
2 39444  97.8274 130.4319 0034724 232.3552 127.4524 15.09382626678307
UWE-3                   
1 39446U 13066AG  26159.12517313  .00004591  00000+0  39518-3 0  9995
2 39446  97.8687 115.1387 0048868 351.6421   8.3981 14.96953360676223
BRITE-CA1 (TORONTO)     
1 40020U 14033L   26158.93320209  .00000797  00000+0  12746-3 0  9992
2 40020  97.9728 288.0323 0077480 307.1538  52.2610 14.72664620640856
DUCHIFAT-1              
1 40021U 14033M   26159.12664081  .00107166  00000+0  11780-2 0  9998
2 40021  98.0465 217.0282 0004621 132.1747 227.9902 15.62815586654330
NANOSATC-BR1            
1 40024U 14033Q   26159.05715204  .00017706  00000+0  59014-3 0  9990
2 40024  98.0729 190.6378 0003448 188.9886 171.1292 15.31168300652585
QB50P1                  
1 40025U 14033R   26158.98870316  .00009215  00000+0  45488-3 0  9994
2 40025  98.0970 169.4906 0007153 252.8100 107.2349 15.18121687651632
QB50P2                  
1 40032U 14033Y   26158.98608824  .00007741  00000+0  41770-3 0  9997
2 40032  98.0757 155.2946 0007032 193.2890 166.8157 15.15044033651274
PERSEUS-M2              
1 40037U 14033AD  26159.16429978  .00001945  00000+0  18104-3 0  9999
2 40037  97.9975 109.5220 0011351 338.6503  21.4242 14.95490175649436
